IRIDIUM 144             
1 43249U 18030A   25220.59786374  .00000019  00000+0 -13268-6 0  9990
2 43249  86.3919  61.0781 0002046  91.4205 268.7225 14.34217449385339
IRIDIUM 149             
1 43250U 18030B   25220.60420616 -.00000047  00000+0 -23882-4 0  9991
2 43250  86.3916  61.0459 0002048  91.5520 268.5910 14.34217356385351
IRIDIUM 157             
1 43251U 18030C   25220.62323432  .00000030  00000+0  35036-5 0  9997
2 43251  86.3920  61.0841 0002321  85.9831 274.1630 14.34217660385336
IRIDIUM 140             
1 43252U 18030D   25220.57249299  .00000013  00000+0 -22593-5 0  9996
2 43252  86.3918  61.1188 0001914  92.5606 267.5809 14.34217491385381
IRIDIUM 145             
1 43253U 18030E   25220.62957660 -.00000001  00000+0 -75151-5 0  9997
2 43253  86.3917  61.0677 0002110 100.4098 259.7336 14.34217411385320
IRIDIUM 146             
1 43254U 18030F   25220.61054899 -.00000007  00000+0 -94906-5 0  9994
2 43254  86.3917  61.0889 0002049  98.4813 261.6615 14.34217289385334
IRIDIUM 148             
1 43255U 18030G   25220.57883638  .00000004  00000+0 -56182-5 0  9991
2 43255  86.3919  61.1407 0002226  89.7183 270.4268 14.34217414385369
IRIDIUM 142             
1 43256U 18030H   25220.61689167  .00000006  00000+0 -49605-5 0  9992
2 43256  86.3914  61.0250 0002172 102.2235 257.9204 14.34217437385331
